{
  "type": "FeatureCollection",
  "features": [
    {
      "type": "Feature",
      "properties": {
        "norad_id": 30707,
        "name": "FENGYUN 1C DEB",
        "group": "fengyun-1c-debris",
        "lat": -62.03893543276926,
        "lon": 48.84323518082486,
        "alt_km": 829.7542309080764,
        "timestamp": "2025-12-02T23:34:15.794608+00:00",
        "meta_object_name": "FENGYUN 1C DEB",
        "meta_object_id": "1999-025ARR",
        "meta_epoch": "2025-12-01T14:55:11.601120",
        "meta_mean_motion": 14.2655977,
        "meta_eccentricity": 0.00285767,
        "meta_inclination": 99.4147,
        "meta_ra_of_asc_node": 29.1678,
        "meta_arg_of_pericenter": 101.4897,
        "meta_mean_anomaly": 52.1463,
        "meta_ephemeris_type": 0,
        "meta_classification_type": "U",
        "meta_norad_cat_id": 30707,
        "meta_element_set_no": 999,
        "meta_rev_at_epoch": 96644,
        "meta_bstar": 0.001557468,
        "meta_mean_motion_dot": 3.725e-05,
        "meta_mean_motion_ddot": 0,
        "tle_line1": "1 30707U 99025ARR 25335.62166205  .00003725  00000+0  15575-2 0  9999",
        "tle_line2": "2 30707  99.4147  29.1678 0028576 101.4897  52.1463 14.26559770966440"
      },
      "geometry": {
        "type": "Point",
        "coordinates": [
          48.84323518082486,
          -62.03893543276926
        ]
      }
    },
    {
      "type": "Feature",
      "properties": {
        "norad_id": 30708,
        "name": "FENGYUN 1C DEB",
        "group": "fengyun-1c-debris",
        "lat": 31.835648247149265,
        "lon": 176.36722404680089,
        "alt_km": 848.7744206586985,
        "timestamp": "2025-12-02T23:34:15.794619+00:00",
        "meta_object_name": "FENGYUN 1C DEB",
        "meta_object_id": "1999-025ARS",
        "meta_epoch": "2025-11-30T23:33:44.749152",
        "meta_mean_motion": 14.12168105,
        "meta_eccentricity": 0.0007509,
        "meta_inclination": 98.691,
        "meta_ra_of_asc_node": 348.9786,
        "meta_arg_of_pericenter": 229.5874,
        "meta_mean_anomaly": 194.4011,
        "meta_ephemeris_type": 0,
        "meta_classification_type": "U",
        "meta_norad_cat_id": 30708,
        "meta_element_set_no": 999,
        "meta_rev_at_epoch": 96670,
        "meta_bstar": 0.00019143481,
        "meta_mean_motion_dot": 3.09e-06,
        "meta_mean_motion_ddot": 0,
        "tle_line1": "1 30708U 99025ARS 25334.98176793  .00000309  00000+0  19143-3 0  9992",
        "tle_line2": "2 30708  98.6910 348.9786 0007509 229.5874 194.4011 14.12168105966703"
      },
      "geometry": {
        "type": "Point",
        "coordinates": [
          176.36722404680089,
          31.835648247149265
        ]
      }
    },
    {
      "type": "Feature",
      "properties": {
        "norad_id": 30709,
        "name": "FENGYUN 1C DEB",
        "group": "fengyun-1c-debris",
        "lat": -7.163866680688672,
        "lon": -44.180632598798255,
        "alt_km": 803.3394278709156,
        "timestamp": "2025-12-02T23:34:15.794629+00:00",
        "meta_object_name": "FENGYUN 1C DEB",
        "meta_object_id": "1999-025ART",
        "meta_epoch": "2025-12-02T03:16:23.651904",
        "meta_mean_motion": 14.17283504,
        "meta_eccentricity": 0.00836516,
        "meta_inclination": 99.1429,
        "meta_ra_of_asc_node": 313.79,
        "meta_arg_of_pericenter": 300.2675,
        "meta_mean_anomaly": 59.0239,
        "meta_ephemeris_type": 0,
        "meta_classification_type": "U",
        "meta_norad_cat_id": 30709,
        "meta_element_set_no": 999,
        "meta_rev_at_epoch": 95846,
        "meta_bstar": 0.0032806476,
        "meta_mean_motion_dot": 6.818e-05,
        "meta_mean_motion_ddot": 0,
        "tle_line1": "1 30709U 99025ART 25336.13638486  .00006818  00000+0  32806-2 0  9995",
        "tle_line2": "2 30709  99.1429 313.7900 0083651 300.2675  59.0239 14.17283504958469"
      },
      "geometry": {
        "type": "Point",
        "coordinates": [
          -44.180632598798255,
          -7.163866680688672
        ]
      }
    },
    {
      "type": "Feature",
      "properties": {
        "norad_id": 30710,
        "name": "FENGYUN 1C DEB",
        "group": "fengyun-1c-debris",
        "lat": -39.68694806115725,
        "lon": -126.65055730276632,
        "alt_km": 1056.2509840928496,
        "timestamp": "2025-12-02T23:34:15.794639+00:00",
        "meta_object_name": "FENGYUN 1C DEB",
        "meta_object_id": "1999-025ARU",
        "meta_epoch": "2025-12-01T22:00:42.388128",
        "meta_mean_motion": 13.94035563,
        "meta_eccentricity": 0.02224947,
        "meta_inclination": 102.7465,
        "meta_ra_of_asc_node": 221.0587,
        "meta_arg_of_pericenter": 109.0042,
        "meta_mean_anomaly": 269.5002,
        "meta_ephemeris_type": 0,
        "meta_classification_type": "U",
        "meta_norad_cat_id": 30710,
        "meta_element_set_no": 999,
        "meta_rev_at_epoch": 94638,
        "meta_bstar": 0.0024742352,
        "meta_mean_motion_dot": 3.95e-05,
        "meta_mean_motion_ddot": 0,
        "tle_line1": "1 30710U 99025ARU 25335.91715727  .00003950  00000+0  24742-2 0  9990",
        "tle_line2": "2 30710 102.7465 221.0587 0222494 109.0042 269.5002 13.94035563946385"
      },
      "geometry": {
        "type": "Point",
        "coordinates": [
          -126.65055730276632,
          -39.68694806115725
        ]
      }
    },
    {
      "type": "Feature",
      "properties": {
        "norad_id": 30714,
        "name": "FENGYUN 1C DEB",
        "group": "fengyun-1c-debris",
        "lat": -11.1918741559258,
        "lon": 27.549109672180446,
        "alt_km": 848.631674691107,
        "timestamp": "2025-12-02T23:34:15.794649+00:00",
        "meta_object_name": "FENGYUN 1C DEB",
        "meta_object_id": "1999-025ARY",
        "meta_epoch": "2025-12-01T18:50:55.802112",
        "meta_mean_motion": 14.03258846,
        "meta_eccentricity": 0.0066966,
        "meta_inclination": 98.8388,
        "meta_ra_of_asc_node": 24.6224,
        "meta_arg_of_pericenter": 313.4967,
        "meta_mean_anomaly": 112.4422,
        "meta_ephemeris_type": 0,
        "meta_classification_type": "U",
        "meta_norad_cat_id": 30714,
        "meta_element_set_no": 999,
        "meta_rev_at_epoch": 95839,
        "meta_bstar": 0.00082837207,
        "meta_mean_motion_dot": 1.275e-05,
        "meta_mean_motion_ddot": 0,
        "tle_line1": "1 30714U 99025ARY 25335.78536808  .00001275  00000+0  82837-3 0  9998",
        "tle_line2": "2 30714  98.8388  24.6224 0066966 313.4967 112.4422 14.03258846958398"
      },
      "geometry": {
        "type": "Point",
        "coordinates": [
          27.549109672180446,
          -11.1918741559258
        ]
      }
    },
    {
      "type": "Feature",
      "properties": {
        "norad_id": 30715,
        "name": "FENGYUN 1C DEB",
        "group": "fengyun-1c-debris",
        "lat": 6.9815228994487555,
        "lon": -132.79752473175176,
        "alt_km": 800.3182130429523,
        "timestamp": "2025-12-02T23:34:15.794659+00:00",
        "meta_object_name": "FENGYUN 1C DEB",
        "meta_object_id": "1999-025ARZ",
        "meta_epoch": "2025-12-02T04:04:51.478464",
        "meta_mean_motion": 14.14570334,
        "meta_eccentricity": 0.00678343,
        "meta_inclination": 98.9789,
        "meta_ra_of_asc_node": 45.2767,
        "meta_arg_of_pericenter": 197.4215,
        "meta_mean_anomaly": 162.463,
        "meta_ephemeris_type": 0,
        "meta_classification_type": "U",
        "meta_norad_cat_id": 30715,
        "meta_element_set_no": 999,
        "meta_rev_at_epoch": 96032,
        "meta_bstar": 0.0021568755,
        "meta_mean_motion_dot": 4.191e-05,
        "meta_mean_motion_ddot": 0,
        "tle_line1": "1 30715U 99025ARZ 25336.17004026  .00004191  00000+0  21569-2 0  9999",
        "tle_line2": "2 30715  98.9789  45.2767 0067834 197.4215 162.4630 14.14570334960320"
      },
      "geometry": {
        "type": "Point",
        "coordinates": [
          -132.79752473175176,
          6.9815228994487555
        ]
      }
    },
    {
      "type": "Feature",
      "properties": {
        "norad_id": 30716,
        "name": "FENGYUN 1C DEB",
        "group": "fengyun-1c-debris",
        "lat": -69.8694869268085,
        "lon": -46.177802567844175,
        "alt_km": 651.5005694741576,
        "timestamp": "2025-12-02T23:34:15.794669+00:00",
        "meta_object_name": "FENGYUN 1C DEB",
        "meta_object_id": "1999-025ASA",
        "meta_epoch": "2025-12-02T11:21:21.663360",
        "meta_mean_motion": 14.78374587,
        "meta_eccentricity": 0.002008,
        "meta_inclination": 98.8724,
        "meta_ra_of_asc_node": 158.4855,
        "meta_arg_of_pericenter": 118.6065,
        "meta_mean_anomaly": 305.8566,
        "meta_ephemeris_type": 0,
        "meta_classification_type": "U",
        "meta_norad_cat_id": 30716,
        "meta_element_set_no": 999,
        "meta_rev_at_epoch": 97672,
        "meta_bstar": 0.0051098,
        "meta_mean_motion_dot": 0.00037455,
        "meta_mean_motion_ddot": 0,
        "tle_line1": "1 30716U 99025ASA 25336.47316740  .00037455  00000+0  51098-2 0  9991",
        "tle_line2": "2 30716  98.8724 158.4855 0020080 118.6065 305.8566 14.78374587976728"
      },
      "geometry": {
        "type": "Point",
        "coordinates": [
          -46.177802567844175,
          -69.8694869268085
        ]
      }
    }
  ]
}